{"type": "FeatureCollection", "features": [ {"type": "Feature", "properties": {"norad_id": 66707, "name": "FLOCK 4H-4", "group": "last-30-days", "lat": 70.23397843189142, "lon": -90.0985125566196, "alt_km": 509.52352058519045, "timestamp": "2025-12-22T23:36:19.410067+00:00", "meta": {"OBJECT_NAME": "FLOCK 4H-4", "OBJECT_ID": "2025-276AT", "EPOCH": "2025-12-22T12:02:57.639264", "MEAN_MOTION": 15.17204393, "ECCENTRICITY": 0.00036285, "INCLINATION": 97.4433, "RA_OF_ASC_NODE": 68.094, "ARG_OF_PERICENTER": 254.6123, "MEAN_ANOMALY": 105.471, "EPHEMERIS_TYPE": 0, "CLASSIFICATION_TYPE": "U", "NORAD_CAT_ID": 66707, "ELEMENT_SET_NO": 999, "REV_AT_EPOCH": 360, "BSTAR": 0.00052851164, "MEAN_MOTION_DOT": 0.00010446, "MEAN_MOTION_DDOT": 0}, "tle": {"line1": "1 66707U 25276AT  25356.50205601  .00010446  00000+0  52851-3 0  9996", "line2": "2 66707  97.4433  68.0940 0003628 254.6123 105.4710 15.17204393  3609"}}, "geometry": {"type": "Point", "coordinates": [-90.0985125566196, 70.23397843189142]}}, {"type": "Feature", "properties": {"norad_id": 66708, "name": "FLOCK 4H-5", "group": "last-30-days", "lat": -11.281534315208154, "lon": -112.90619051431841, "alt_km": 515.404786852775, "timestamp": "2025-12-22T23:36:19.410077+00:00", "meta": {"OBJECT_NAME": "FLOCK 4H-5", "OBJECT_ID": "2025-276AU", "EPOCH": "2025-12-22T10:06:38.796768", "MEAN_MOTION": 15.18163168, "ECCENTRICITY": 0.00011913, "INCLINATION": 97.4386, "RA_OF_ASC_NODE": 68.0345, "ARG_OF_PERICENTER": 130.2403, "MEAN_ANOMALY": 229.8935, "EPHEMERIS_TYPE": 0, "CLASSIFICATION_TYPE": "U", "NORAD_CAT_ID": 66708, "ELEMENT_SET_NO": 999, "REV_AT_EPOCH": 359, "BSTAR": 0.00059499817, "MEAN_MOTION_DOT": 0.00012098, "MEAN_MOTION_DDOT": 0}, "tle": {"line1": "1 66708U 25276AU  25356.42128237  .00012098  00000+0  59500-3 0  9990", "line2": "2 66708  97.4386  68.0345 0001191 130.2403 229.8935 15.18163168  3592"}}, "geometry": {"type": "Point", "coordinates": [-112.90619051431841, -11.281534315208154]}}, {"type": "Feature", "properties": {"norad_id": 66709, "name": "FLOCK 4H-6", "group": "last-30-days", "lat": 8.67555757922023, "lon": -110.25943916861783, "alt_km": 512.5726687607284, "timestamp": "2025-12-22T23:36:19.410097+00:00", "meta": {"OBJECT_NAME": "FLOCK 4H-6", "OBJECT_ID": "2025-276AV", "EPOCH": "2025-12-22T11:46:43.601088", "MEAN_MOTION": 15.17903075, "ECCENTRICITY": 0.00026554, "INCLINATION": 97.4435, "RA_OF_ASC_NODE": 68.1129, "ARG_OF_PERICENTER": 209.6515, "MEAN_ANOMALY": 150.4568, "EPHEMERIS_TYPE": 0, "CLASSIFICATION_TYPE": "U", "NORAD_CAT_ID": 66709, "ELEMENT_SET_NO": 999, "REV_AT_EPOCH": 360, "BSTAR": 0.00043620223, "MEAN_MOTION_DOT": 8.782e-05, "MEAN_MOTION_DDOT": 0}, "tle": {"line1": "1 66709U 25276AV  25356.49078242  .00008782  00000+0  43620-3 0  9999", "line2": "2 66709  97.4435  68.1129 0002655 209.6515 150.4568 15.17903075  3601"}}, "geometry": {"type": "Point", "coordinates": [-110.25943916861783, 8.67555757922023]}}, {"type": "Feature", "properties": {"norad_id": 66710, "name": "FLOCK 4H-7", "group": "last-30-days", "lat": 48.638169009298934, "lon": -102.90533938695863, "alt_km": 509.8352474155972, "timestamp": "2025-12-22T23:36:19.410110+00:00", "meta": {"OBJECT_NAME": "FLOCK 4H-7", "OBJECT_ID": "2025-276AW", "EPOCH": "2025-12-22T11:57:11.312640", "MEAN_MOTION": 15.17478885, "ECCENTRICITY": 0.00010727, "INCLINATION": 97.4392, "RA_OF_ASC_NODE": 68.0831, "ARG_OF_PERICENTER": 297.9139, "MEAN_ANOMALY": 62.1986, "EPHEMERIS_TYPE": 0, "CLASSIFICATION_TYPE": "U", "NORAD_CAT_ID": 66710, "ELEMENT_SET_NO": 999, "REV_AT_EPOCH": 360, "BSTAR": 0.00030568752, "MEAN_MOTION_DOT": 6.058e-05, "MEAN_MOTION_DDOT": 0}, "tle": {"line1": "1 66710U 25276AW  25356.49804760  .00006058  00000+0  30569-3 0  9995", "line2": "2 66710  97.4392  68.0831 0001072 297.9139  62.1986 15.17478885  3607"}}, "geometry": {"type": "Point", "coordinates": [-102.90533938695863, 48.638169009298934]}}, {"type": "Feature", "properties": {"norad_id": 66711, "name": "FLOCK 4H-8", "group": "last-30-days", "lat": 49.87175655589903, "lon": -102.49714877728324, "alt_km": 510.23216481160307, "timestamp": "2025-12-22T23:36:19.410120+00:00", "meta": {"OBJECT_NAME": "FLOCK 4H-8", "OBJECT_ID": "2025-276AX", "EPOCH": "2025-12-22T13:32:27.991968", "MEAN_MOTION": 15.17477943, "ECCENTRICITY": 0.00024634, "INCLINATION": 97.4432, "RA_OF_ASC_NODE": 68.1683, "ARG_OF_PERICENTER": 270.5774, "MEAN_ANOMALY": 89.5178, "EPHEMERIS_TYPE": 0, "CLASSIFICATION_TYPE": "U", "NORAD_CAT_ID": 66711, "ELEMENT_SET_NO": 999, "REV_AT_EPOCH": 361, "BSTAR": 0.00057914363, "MEAN_MOTION_DOT": 0.00011544, "MEAN_MOTION_DDOT": 0}, "tle": {"line1": "1 66711U 25276AX  25356.56421287  .00011544  00000+0  57914-3 0  9992", "line2": "2 66711  97.4432  68.1683 0002463 270.5774  89.5178 15.17477943  3617"}}, "geometry": {"type": "Point", "coordinates": [-102.49714877728324, 49.87175655589903]}}, {"type": "Feature", "properties": {"norad_id": 66712, "name": "FLOCK 4H-9", "group": "last-30-days", "lat": 9.729981580967461, "lon": -110.12058745987778, "alt_km": 512.6084612331397, "timestamp": "2025-12-22T23:36:19.410134+00:00", "meta": {"OBJECT_NAME": "FLOCK 4H-9", "OBJECT_ID": "2025-276AY", "EPOCH": "2025-12-22T10:12:04.751136", "MEAN_MOTION": 15.17906818, "ECCENTRICITY": 0.00026903, "INCLINATION": 97.4427, "RA_OF_ASC_NODE": 68.0458, "ARG_OF_PERICENTER": 219.2739, "MEAN_ANOMALY": 140.83, "EPHEMERIS_TYPE": 0, "CLASSIFICATION_TYPE": "U", "NORAD_CAT_ID": 66712, "ELEMENT_SET_NO": 999, "REV_AT_EPOCH": 359, "BSTAR": 0.00046434918, "MEAN_MOTION_DOT": 9.355e-05, "MEAN_MOTION_DDOT": 0}, "tle": {"line1": "1 66712U 25276AY  25356.42505499  .00009355  00000+0  46435-3 0  9999", "line2": "2 66712  97.4427  68.0458 0002690 219.2739 140.8300 15.17906818  3597"}}, "geometry": {"type": "Point", "coordinates": [-110.12058745987778, 9.729981580967461]}}, {"type": "Feature", "properties": {"norad_id": 66713, "name": "FLOCK 4H-10", "group": "last-30-days", "lat": 67.95058527771558, "lon": -92.60884321252773, "alt_km": 509.78183781072676, "timestamp": "2025-12-22T23:36:19.410144+00:00", "meta": {"OBJECT_NAME": "FLOCK 4H-10", "OBJECT_ID": "2025-276AZ", "EPOCH": "2025-12-21T12:17:32.542944", "MEAN_MOTION": 15.17170539, "ECCENTRICITY": 0.00026878, "INCLINATION": 97.4432, "RA_OF_ASC_NODE": 67.1151, "ARG_OF_PERICENTER": 252.9711, "MEAN_ANOMALY": 107.1228, "EPHEMERIS_TYPE": 0, "CLASSIFICATION_TYPE": "U", "NORAD_CAT_ID": 66713, "ELEMENT_SET_NO": 999, "REV_AT_EPOCH": 345, "BSTAR": -0.0036543614, "MEAN_MOTION_DOT": -0.00071864, "MEAN_MOTION_DDOT": 0}, "tle": {"line1": "1 66713U 25276AZ  25355.51218221 -.00071864  00000+0 -36544-2 0  9998", "line2": "2 66713  97.4432  67.1151 0002687 252.9711 107.1228 15.17170539  3457"}}, "geometry": {"type": "Point", "coordinates": [-92.60884321252773, 67.95058527771558]}}, {"type": "Feature", "properties": {"norad_id": 66714, "name": "FLOCK 4H-11", "group": "last-30-days", "lat": 38.81242908623101, "lon": -105.38368737433687, "alt_km": 510.73390468215075, "timestamp": "2025-12-22T23:36:19.410156+00:00", "meta": {"OBJECT_NAME": "FLOCK 4H-11", "OBJECT_ID": "2025-276BA", "EPOCH": "2025-12-22T10:19:45.302880", "MEAN_MOTION": 15.17776754, "ECCENTRICITY": 0.00021441, "INCLINATION": 97.4418, "RA_OF_ASC_NODE": 68.0373, "ARG_OF_PERICENTER": 279.3438, "MEAN_ANOMALY": 80.7553, "EPHEMERIS_TYPE": 0, "CLASSIFICATION_TYPE": "U", "NORAD_CAT_ID": 66714, "ELEMENT_SET_NO": 999, "REV_AT_EPOCH": 359, "BSTAR": 0.00072225357, "MEAN_MOTION_DOT": 0.00014543, "MEAN_MOTION_DDOT": 0}, "tle": {"line1": "1 66714U 25276BA  25356.43038545  .00014543  00000+0  72225-3 0  9996", "line2": "2 66714  97.4418  68.0373 0002144 279.3438  80.7553 15.17776754  3598"}}, "geometry": {"type": "Point", "coordinates": [-105.38368737433687, 38.81242908623101]}}, {"type": "Feature", "properties": {"norad_id": 66715, "name": "FLOCK 4H-12", "group": "last-30-days", "lat": -1.7619421084325728, "lon": -111.6480184945143, "alt_km": 513.6474839640732, "timestamp": "2025-12-22T23:36:19.410166+00:00", "meta": {"OBJECT_NAME": "FLOCK 4H-12", "OBJECT_ID": "2025-276BB", "EPOCH": "2025-12-22T11:44:02.367456", "MEAN_MOTION": 15.18071845, "ECCENTRICITY": 0.00018864, "INCLINATION": 97.4393, "RA_OF_ASC_NODE": 68.096, "ARG_OF_PERICENTER": 187.0218, "MEAN_ANOMALY": 173.099, "EPHEMERIS_TYPE": 0, "CLASSIFICATION_TYPE": "U", "NORAD_CAT_ID": 66715, "ELEMENT_SET_NO": 999, "REV_AT_EPOCH": 391, "BSTAR": 0.0005973274, "MEAN_MOTION_DOT": 0.00012114, "MEAN_MOTION_DDOT": 0}, "tle": {"line1": "1 66715U 25276BB  25356.48891629  .00012114  00000+0  59733-3 0  9993", "line2": "2 66715  97.4393  68.0960 0001886 187.0218 173.0990 15.18071845  3913"}}, "geometry": {"type": "Point", "coordinates": [-111.6480184945143, -1.7619421084325728]}}, {"type": "Feature", "properties": {"norad_id": 66716, "name": "FLOCK 4H-13", "group": "last-30-days", "lat": -13.024059706900944, "lon": -113.13115402933852, "alt_km": 515.1113431509903, "timestamp": "2025-12-22T23:36:19.410176+00:00", "meta": {"OBJECT_NAME": "FLOCK 4H-13", "OBJECT_ID": "2025-276BC", "EPOCH": "2025-12-22T11:41:06.268704", "MEAN_MOTION": 15.18184799, "ECCENTRICITY": 0.0001642, "INCLINATION": 97.443, "RA_OF_ASC_NODE": 68.1131, "ARG_OF_PERICENTER": 148.9257, "MEAN_ANOMALY": 211.2074, "EPHEMERIS_TYPE": 0, "CLASSIFICATION_TYPE": "U", "NORAD_CAT_ID": 66716, "ELEMENT_SET_NO": 999, "REV_AT_EPOCH": 360, "BSTAR": 0.00058523326, "MEAN_MOTION_DOT": 0.00011906, "MEAN_MOTION_DDOT": 0}, "tle": {"line1": "1 66716U 25276BC  25356.48687811  .00011906  00000+0  58523-3 0  9994", "line2": "2 66716  97.4430  68.1131 0001642 148.9257 211.2074 15.18184799  3603"}}, "geometry": {"type": "Point", "coordinates": [-113.13115402933852, -13.024059706900944]}}]}